{
    "satellites": [
        {
            "name": "starlink381",
            "title": "Starlink-381 (G17-36) (new)",
            "tle": [
                "1 68918C 26097Z   26126.94076389 -.02020200  00000+0 -66059-2 0  1266",
                "2 68918  97.2883 322.0520 0001698 101.3079 125.5039 15.91633274    17"
            ],
            "stdMag": 5,
            "noradId": "68918",
            "intDes": null,
            "tleUrl": "http://celestrak.org/NORAD/elements/supplemental/sup-gp.php?FILE=starlink&FORMAT=tle",
            "launchDate": "2026-04-30T02:42:49.000Z",
            "active": true,
            "batch": [
                {
                    "noradId": "68918",
                    "tle": [
                        "1 68918C 26097Z   26126.94076389 -.02020200  00000+0 -66059-2 0  1266",
                        "2 68918  97.2883 322.0520 0001698 101.3079 125.5039 15.91633274    17"
                    ]
                },
                {
                    "noradId": "68915",
                    "tle": [
                        "1 68915C 26097W   26126.98520833 -.02017600  00000+0 -65274-2 0  1263",
                        "2 68915  97.2883 322.1015 0001681  90.5772  35.1103 15.91842924    17"
                    ]
                },
                {
                    "noradId": "68917",
                    "tle": [
                        "1 68917C 26097Y   26126.96854167 -.02009000  00000+0 -65419-2 0  1269",
                        "2 68917  97.2884 322.0830 0001439  86.4371 301.5949 15.91711307    12"
                    ]
                },
                {
                    "noradId": "68916",
                    "tle": [
                        "1 68916C 26097X   26126.98312500 -.02042700  00000+0 -67922-2 0  1265",
                        "2 68916  97.2885 322.0963 0001670  81.9652  24.5040 15.91313950    14"
                    ]
                },
                {
                    "noradId": "68914",
                    "tle": [
                        "1 68914C 26097V   26126.93937500 -.01930000  00000+0 -64385-2 0  1269",
                        "2 68914  97.2882 322.0482 0001426  77.1022 136.9129 15.91190967    19"
                    ]
                },
                {
                    "noradId": "68913",
                    "tle": [
                        "1 68913C 26097U   26126.94562500 -.02050900  00000+0 -69782-2 0  1262",
                        "2 68913  97.2882 322.0528 0001510  99.0004 145.9235 15.90861317    17"
                    ]
                },
                {
                    "noradId": "68912",
                    "tle": [
                        "1 68912C 26097T   26126.98520833 -.02090000  00000+0 -72447-2 0  1265",
                        "2 68912  97.2884 322.0945 0001668  85.1419  23.8784 15.90510056    15"
                    ]
                },
                {
                    "noradId": "68911",
                    "tle": [
                        "1 68911C 26097S   26126.94770833 -.02019000  00000+0 -68031-2 0  1262",
                        "2 68911  97.2884 322.0563 0001631 103.0881 156.2587 15.91038526    13"
                    ]
                },
                {
                    "noradId": "68910",
                    "tle": [
                        "1 68910C 26097R   26126.92548611 -.02062400  00000+0 -71296-2 0  1265",
                        "2 68910  97.2885 322.0295 0001503  85.7692  38.8423 15.90550925    14"
                    ]
                },
                {
                    "noradId": "68909",
                    "tle": [
                        "1 68909C 26097Q   26126.94840278 -.02064600  00000+0 -72472-2 0  1260",
                        "2 68909  97.2885 322.0527 0001511 101.1378 152.1570 15.90245066    13"
                    ]
                },
                {
                    "noradId": "68908",
                    "tle": [
                        "1 68908C 26097P   26126.95673611 -.02100900  00000+0 -74731-2 0  1269",
                        "2 68908  97.2885 322.0610 0001336 103.5242 195.2071 15.89997525    12"
                    ]
                },
                {
                    "noradId": "68907",
                    "tle": [
                        "1 68907C 26097N   26126.96506944 -.02102800  00000+0 -75743-2 0  1268",
                        "2 68907  97.2885 322.0689 0001228  93.7363 250.0891 15.89746143    19"
                    ]
                },
                {
                    "noradId": "68906",
                    "tle": [
                        "1 68906C 26097M   26126.94354167 -.02090200  00000+0 -75718-2 0  1265",
                        "2 68906  97.2886 322.0448 0001580  99.1022 118.8826 15.89623943    16"
                    ]
                },
                {
                    "noradId": "68905",
                    "tle": [
                        "1 68905C 26097L   26126.94979167 -.02105200  00000+0 -77199-2 0  1269",
                        "2 68905  97.2887 322.0503 0001524 101.0484 150.0694 15.89384971    17"
                    ]
                },
                {
                    "noradId": "68904",
                    "tle": [
                        "1 68904C 26097K   26126.94909722 -.02125600  00000+0 -78775-2 0  1265",
                        "2 68904  97.2887 322.0483 0001607  97.3245 147.0991 15.89180780    15"
                    ]
                },
                {
                    "noradId": "68903",
                    "tle": [
                        "1 68903C 26097J   26126.94770833 -.02119900  00000+0 -79384-2 0  1266",
                        "2 68903  97.2886 322.0458 0001516  98.8502 134.8739 15.88967398    17"
                    ]
                },
                {
                    "noradId": "68902",
                    "tle": [
                        "1 68902C 26097H   26126.95395833 -.02172200  00000+0 -83459-2 0  1269",
                        "2 68902  97.2886 322.0503 0001619 103.8840 160.4497 15.88469773    13"
                    ]
                },
                {
                    "noradId": "68901",
                    "tle": [
                        "1 68901C 26097G   26126.98243056 -.02192000  00000+0 -83709-2 0  1268",
                        "2 68901  97.2888 322.0820 0001537  77.2697 352.3805 15.88605100    10"
                    ]
                },
                {
                    "noradId": "68900",
                    "tle": [
                        "1 68900C 26097F   26126.98173611 -.02225000  00000+0 -87123-2 0  1267",
                        "2 68900  97.2887 322.0790 0001523  80.2279 340.2634 15.88109103    17"
                    ]
                },
                {
                    "noradId": "68899",
                    "tle": [
                        "1 68899C 26097E   26126.94006944 -.02213600  00000+0 -87058-2 0  1264",
                        "2 68899  97.2886 322.0335 0001657  92.9354  86.9720 15.88011875    18"
                    ]
                },
                {
                    "noradId": "68898",
                    "tle": [
                        "1 68898C 26097D   26126.94562500 -.02261000  00000+0 -91402-2 0  1263",
                        "2 68898  97.2885 322.0372 0001698  94.7965 111.4136 15.87468766    19"
                    ]
                },
                {
                    "noradId": "68897",
                    "tle": [
                        "1 68897C 26097C   26126.95187500 -.02241200  00000+0 -89528-2 0  1262",
                        "2 68897  97.2885 322.0450 0001646  99.6963 144.9638 15.87705198    11"
                    ]
                },
                {
                    "noradId": "68896",
                    "tle": [
                        "1 68896C 26097B   26126.97270833 -.02281900  00000+0 -93932-2 0  1260",
                        "2 68896  97.2886 322.0648 0001409  93.3532 264.5104 15.87105698    16"
                    ]
                },
                {
                    "noradId": "68895",
                    "tle": [
                        "1 68895C 26097A   26126.98729167 -.02307800  00000+0 -96551-2 0  1267",
                        "2 68895  97.2888 322.0794 0001570  82.5106 355.6405 15.86781199    16"
                    ]
                }
            ]
        },
        {
            "name": "starlink380",
            "title": "Starlink-380 (G17-16)",
            "tle": [
                "1 68843C 26094E   26126.93173611 -.01960700  00000+0 -88013-2 0  1266",
                "2 68843  97.2789 140.9522 0001462  90.3335 133.0532 15.85120806    16"
            ],
            "stdMag": 5,
            "noradId": "68843",
            "intDes": null,
            "tleUrl": "http://celestrak.org/NORAD/elements/supplemental/sup-gp.php?FILE=starlink&FORMAT=tle",
            "launchDate": "2026-04-26T14:37:09.000Z",
            "active": true,
            "batch": [
                {
                    "noradId": "68843",
                    "tle": [
                        "1 68843C 26094E   26126.93173611 -.01960700  00000+0 -88013-2 0  1266",
                        "2 68843  97.2789 140.9522 0001462  90.3335 133.0532 15.85120806    16"
                    ]
                }
            ]
        }
    ],
    "config": {}
}